JY1SAT (JO-97)          
1 43803U 18099AX  26068.68634132  .00017774  00000+0  60804-3 0  9996
2 43803  97.4249 131.3625 0004723 256.6795 103.3919 15.30302629398391
2023-091H               
1 57173U 23091H   26068.94081583  .00014617  00000+0  56322-3 0  9997
2 57173  97.5166 131.4381 0011785 104.1062 256.1487 15.26380881149151
